ONEWEB-0379             
1 49305U 21090AC  24127.88857048 -.00000101  00000+0 -30720-3 0  9995
2 49305  87.8943  83.1721 0001925  83.6131 276.5218 13.14500757126231
ONEWEB-0380             
1 49306U 21090AD  24127.90089621 -.00000040  00000+0 -13135-3 0  9996
2 49306  87.9121  98.4717 0002086  84.6651 275.4720 13.19723839124699
ONEWEB-0381             
1 49307U 21090AE  24127.87844463  .00000016  00000+0  63215-5 0  9993
2 49307  87.9209  67.9046 0002084  78.2525 281.8842 13.20773182128014
ONEWEB-0385             
1 49311U 21090AJ  24127.85792794  .00000085  00000+0  17648-3 0  9998
2 49311  87.9208  67.9182 0001869  70.8776 289.2560 13.20771181127986
ONEWEB-0386             
1 49312U 21090AK  24127.87528999  .00000014  00000+0  31056-5 0  9998
2 49312  87.9201  67.9124 0001775  76.0109 284.1222 13.20771358128009
